[{"OBJECT_NAME":"STARLINK-31648","OBJECT_ID":"2024-050N","EPOCH":"2026-03-09T14:04:13.226016","MEAN_MOTION":15.3017554,"ECCENTRICITY":0.0001288,"INCLINATION":53.1593,"RA_OF_ASC_NODE":181.4092,"ARG_OF_PERICENTER":68.0542,"MEAN_ANOMALY":292.0596,"EPHEMERIS_TYPE":0,"CLASSIFICATION_TYPE":"U","NORAD_CAT_ID":59266,"ELEMENT_SET_NO":999,"REV_AT_EPOCH":11053,"BSTAR":7.0549e-6,"MEAN_MOTION_DOT":-1.5e-6,"MEAN_MOTION_DDOT":0},{"OBJECT_NAME":"TRANSPORTER-12 OBJECT AZ","OBJECT_ID":"2025-009AZ","EPOCH":"2026-03-09T17:02:46.667040","MEAN_MOTION":15.30349724,"ECCENTRICITY":9.87e-5,"INCLINATION":97.3981,"RA_OF_ASC_NODE":151.9913,"ARG_OF_PERICENTER":45.3581,"MEAN_ANOMALY":314.774,"EPHEMERIS_TYPE":0,"CLASSIFICATION_TYPE":"U","NORAD_CAT_ID":62656,"ELEMENT_SET_NO":999,"REV_AT_EPOCH":6379,"BSTAR":0.00054902545,"MEAN_MOTION_DOT":0.00016057,"MEAN_MOTION_DDOT":0}]
