STARLINK-31648          
1 59266U 24050N   26068.58626419 -.00000150  00000+0  70549-5 0  9998
2 59266  53.1593 181.4092 0001288  68.0542 292.0596 15.30175540110539
TRANSPORTER-12 OBJECT AZ
1 62656U 25009AZ  26068.71026235  .00016057  00000+0  54903-3 0  9991
2 62656  97.3981 151.9913 0000987  45.3581 314.7740 15.30349724 63792
